[
    {
      "city_id": "20",
      "province_id": "21",
      "province": "Nanggroe Aceh Darussalam (NAD)",
      "type": "Kota",
      "city_name": "Banda Aceh",
      "postal_code": "23238"
    },
    {
      "city_id": "278",
      "province_id": "34",
      "province": "Sumatera Utara",
      "type": "Kota",
      "city_name": "Medan",
      "postal_code": "20228"
    },
    {
      "city_id": "327",
      "province_id": "33",
      "province": "Sumatera Selatan",
      "type": "Kota",
      "city_name": "Palembang",
      "postal_code": "30111"
    },
    {
      "city_id": "318",
      "province_id": "32",
      "province": "Sumatera Barat",
      "type": "Kota",
      "city_name": "Padang",
      "postal_code": "25112"
    },
    {
      "city_id": "62",
      "province_id": "4",
      "province": "Bengkulu",
      "type": "Kota",
      "city_name": "Bengkulu",
      "postal_code": "38229"
    },
    {
      "city_id": "350",
      "province_id": "26",
      "province": "Riau",
      "type": "Kota",
      "city_name": "Pekanbaru",
      "postal_code": "28112"
    },
    {
      "city_id": "462",
      "province_id": "17",
      "province": "Kepulauan Riau",
      "type": "Kota",
      "city_name": "Tanjung Pinang",
      "postal_code": "29111"
    },
    {
      "city_id": "365",
      "province_id": "12",
      "province": "Kalimantan Barat",
      "type": "Kota",
      "city_name": "Pontianak",
      "postal_code": "78112"
    },
    {
      "city_id": "387",
      "province_id": "15",
      "province": "Kalimantan Timur",
      "type": "Kota",
      "city_name": "Samarinda",
      "postal_code": "75133"
    },
    {
      "city_id": "35",
      "province_id": "13",
      "province": "Kalimantan Selatan",
      "type": "Kota",
      "city_name": "Banjarbaru",
      "postal_code": "70712"
    },
    {
      "city_id": "326",
      "province_id": "14",
      "province": "Kalimantan Tengah",
      "type": "Kota",
      "city_name": "Palangka Raya",
      "postal_code": "73112"
    },
    {
      "city_id": "403",
      "province_id": "3",
      "province": "Banten",
      "type": "Kota",
      "city_name": "Serang",
      "postal_code": "42111"
    },
    {
      "city_id": "152",
      "province_id": "6",
      "province": "DKI Jakarta",
      "type": "Kota",
      "city_name": "Jakarta Pusat",
      "postal_code": "10540"
    },
    {
      "city_id": "23",
      "province_id": "9",
      "province": "Jawa Barat",
      "type": "Kota",
      "city_name": "Bandung",
      "postal_code": "40111"
    },
    {
      "city_id": "399",
      "province_id": "10",
      "province": "Jawa Tengah",
      "type": "Kota",
      "city_name": "Semarang",
      "postal_code": "50135"
    },
    {
      "city_id": "501",
      "province_id": "5",
      "province": "DI Yogyakarta",
      "type": "Kota",
      "city_name": "Yogyakarta",
      "postal_code": "55111"
    },
    {
      "city_id": "444",
      "province_id": "11",
      "province": "Jawa Timur",
      "type": "Kota",
      "city_name": "Surabaya",
      "postal_code": "60119"
    },
    {
      "city_id": "114",
      "province_id": "1",
      "province": "Bali",
      "type": "Kota",
      "city_name": "Denpasar",
      "postal_code": "80227"
    },
    {
      "city_id": "276",
      "province_id": "22",
      "province": "Nusa Tenggara Barat (NTB)",
      "type": "Kota",
      "city_name": "Mataram",
      "postal_code": "83131"
    },
    {
      "city_id": "213",
      "province_id": "23",
      "province": "Nusa Tenggara Timur (NTT)",
      "type": "Kota",
      "city_name": "Kupang",
      "postal_code": "85119"
    },
    {
      "city_id": "130",
      "province_id": "7",
      "province": "Gorontalo",
      "type": "Kota",
      "city_name": "Gorontalo",
      "postal_code": "96115"
    },
    {
      "city_id": "329",
      "province_id": "29",
      "province": "Sulawesi Tengah",
      "type": "Kota",
      "city_name": "Palu",
      "postal_code": "94111"
    },
    {
      "city_id": "267",
      "province_id": "31",
      "province": "Sulawesi Utara",
      "type": "Kota",
      "city_name": "Manado",
      "postal_code": "95247"
    },
    {
      "city_id": "182",
      "province_id": "30",
      "province": "Sulawesi Tenggara",
      "type": "Kota",
      "city_name": "Kendari",
      "postal_code": "93126"
    },
    {
      "city_id": "254",
      "province_id": "28",
      "province": "Sulawesi Selatan",
      "type": "Kota",
      "city_name": "Makassar",
      "postal_code": "90111"
    },
    {
      "city_id": "477",
      "province_id": "20",
      "province": "Maluku Utara",
      "type": "Kota",
      "city_name": "Ternate",
      "postal_code": "97714"
    },
    {
      "city_id": "467",
      "province_id": "16",
      "province": "Kalimantan Utara",
      "type": "Kota",
      "city_name": "Tarakan",
      "postal_code": "77114"
    },
    {
      "city_id": "265",
      "province_id": "27",
      "province": "Sulawesi Barat",
      "type": "Kabupaten",
      "city_name": "Mamuju",
      "postal_code": "91519"
    },
    {
      "city_id": "14",
      "province_id": "19",
      "province": "Maluku",
      "type": "Kota",
      "city_name": "Ambon",
      "postal_code": "97222"
    },
    {
      "city_id": "425",
      "province_id": "25",
      "province": "Papua Barat",
      "type": "Kota",
      "city_name": "Sorong",
      "postal_code": "98411"
    },
    {
      "city_id": "158",
      "province_id": "24",
      "province": "Papua",
      "type": "Kota",
      "city_name": "Jayapura",
      "postal_code": "99114"
    },
    {
      "city_id": "156",
      "province_id": "8",
      "province": "Jambi",
      "type": "Kota",
      "city_name": "Jambi",
      "postal_code": "36111"
    },
    {
      "city_id": "21",
      "province_id": "18",
      "province": "Lampung",
      "type": "Kota",
      "city_name": "Bandar Lampung",
      "postal_code": "35139"
    },
    {
      "city_id": "334",
      "province_id": "2",
      "province": "Bangka Belitung",
      "type": "Kota",
      "city_name": "Pangkal Pinang",
      "postal_code": "33115"
    }
]